[{"OBJECT_NAME":"CZ-2D R/B","OBJECT_ID":"2005-024B","EPOCH":"2026-03-06T07:25:51.992256","MEAN_MOTION":15.59779484,"ECCENTRICITY":0.00063752,"INCLINATION":97.3593,"RA_OF_ASC_NODE":80.3323,"ARG_OF_PERICENTER":55.657,"MEAN_ANOMALY":304.5289,"EPHEMERIS_TYPE":0,"CLASSIFICATION_TYPE":"U","NORAD_CAT_ID":28738,"ELEMENT_SET_NO":999,"REV_AT_EPOCH":13925,"BSTAR":0.00059686916,"MEAN_MOTION_DOT":0.00047943,"MEAN_MOTION_DDOT":0},{"OBJECT_NAME":"ALOS (DAICHI)","OBJECT_ID":"2006-002A","EPOCH":"2026-03-06T07:16:46.111008","MEAN_MOTION":14.69797497,"ECCENTRICITY":0.00010519,"INCLINATION":98.1215,"RA_OF_ASC_NODE":21.2758,"ARG_OF_PERICENTER":54.5297,"MEAN_ANOMALY":305.6007,"EPHEMERIS_TYPE":0,"CLASSIFICATION_TYPE":"U","NORAD_CAT_ID":28931,"ELEMENT_SET_NO":999,"REV_AT_EPOCH":7298,"BSTAR":0.00035761923,"MEAN_MOTION_DOT":2.085e-5,"MEAN_MOTION_DDOT":0},{"OBJECT_NAME":"H-2A R/B","OBJECT_ID":"2006-002B","EPOCH":"2026-03-05T23:30:56.693376","MEAN_MOTION":15.16321114,"ECCENTRICITY":0.00519125,"INCLINATION":98.2404,"RA_OF_ASC_NODE":211.6848,"ARG_OF_PERICENTER":253.7613,"MEAN_ANOMALY":105.7903,"EPHEMERIS_TYPE":0,"CLASSIFICATION_TYPE":"U","NORAD_CAT_ID":28932,"ELEMENT_SET_NO":999,"REV_AT_EPOCH":9387,"BSTAR":0.00051902603,"MEAN_MOTION_DOT":0.00010336,"MEAN_MOTION_DDOT":0},{"OBJECT_NAME":"RESURS-DK 1","OBJECT_ID":"2006-021A","EPOCH":"2026-03-06T05:30:06.443136","MEAN_MOTION":15.12714009,"ECCENTRICITY":0.00022812,"INCLINATION":69.931,"RA_OF_ASC_NODE":245.9748,"ARG_OF_PERICENTER":165.2061,"MEAN_ANOMALY":194.9173,"EPHEMERIS_TYPE":0,"CLASSIFICATION_TYPE":"U","NORAD_CAT_ID":29228,"ELEMENT_SET_NO":999,"REV_AT_EPOCH":8700,"BSTAR":0.00021603943,"MEAN_MOTION_DOT":3.686e-5,"MEAN_MOTION_DDOT":0},{"OBJECT_NAME":"CZ-4B R/B","OBJECT_ID":"2006-046C","EPOCH":"2026-03-06T02:42:42.043968","MEAN_MOTION":15.1685958,"ECCENTRICITY":0.00316307,"INCLINATION":97.5597,"RA_OF_ASC_NODE":110.0311,"ARG_OF_PERICENTER":280.3204,"MEAN_ANOMALY":79.4464,"EPHEMERIS_TYPE":0,"CLASSIFICATION_TYPE":"U","NORAD_CAT_ID":29507,"ELEMENT_SET_NO":999,"REV_AT_EPOCH":5950,"BSTAR":0.00025945866,"MEAN_MOTION_DOT":5.101e-5,"MEAN_MOTION_DDOT":0},{"OBJECT_NAME":"CZ-2C R/B","OBJECT_ID":"2007-010B","EPOCH":"2026-03-06T06:34:19.096896","MEAN_MOTION":14.20244763,"ECCENTRICITY":0.00579735,"INCLINATION":98.3978,"RA_OF_ASC_NODE":178.7239,"ARG_OF_PERICENTER":304.7383,"MEAN_ANOMALY":54.8343,"EPHEMERIS_TYPE":0,"CLASSIFICATION_TYPE":"U","NORAD_CAT_ID":31114,"ELEMENT_SET_NO":999,"REV_AT_EPOCH":97923,"BSTAR":0.00010322837,"MEAN_MOTION_DOT":1.83e-6,"MEAN_MOTION_DDOT":0},{"OBJECT_NAME":"COSMO-SKYMED 1","OBJECT_ID":"2007-023A","EPOCH":"2026-03-06T06:06:24.979392","MEAN_MOTION":14.96500257,"ECCENTRICITY":9.202e-5,"INCLINATION":97.8863,"RA_OF_ASC_NODE":256.2591,"ARG_OF_PERICENTER":98.8639,"MEAN_ANOMALY":261.2686,"EPHEMERIS_TYPE":0,"CLASSIFICATION_TYPE":"U","NORAD_CAT_ID":31598,"ELEMENT_SET_NO":999,"REV_AT_EPOCH":1439,"BSTAR":0.00033879783,"MEAN_MOTION_DOT":3.79e-5,"MEAN_MOTION_DDOT":0},{"OBJECT_NAME":"COSMOS 2428","OBJECT_ID":"2007-029A","EPOCH":"2026-03-06T03:16:38.661312","MEAN_MOTION":14.12945189,"ECCENTRICITY":0.00089461,"INCLINATION":70.9426,"RA_OF_ASC_NODE":210.8006,"ARG_OF_PERICENTER":280.6888,"MEAN_ANOMALY":79.3226,"EPHEMERIS_TYPE":0,"CLASSIFICATION_TYPE":"U","NORAD_CAT_ID":31792,"ELEMENT_SET_NO":999,"REV_AT_EPOCH":96359,"BSTAR":5.9329234e-5,"MEAN_MOTION_DOT":6.3e-7,"MEAN_MOTION_DDOT":0},{"OBJECT_NAME":"SL-16 R/B","OBJECT_ID":"2007-029B","EPOCH":"2026-03-05T18:07:49.456992","MEAN_MOTION":14.14833448,"ECCENTRICITY":0.00023724,"INCLINATION":70.9757,"RA_OF_ASC_NODE":180.6541,"ARG_OF_PERICENTER":277.2484,"MEAN_ANOMALY":192.7201,"EPHEMERIS_TYPE":0,"CLASSIFICATION_TYPE":"U","NORAD_CAT_ID":31793,"ELEMENT_SET_NO":999,"REV_AT_EPOCH":96481,"BSTAR":-2.459446e-5,"MEAN_MOTION_DOT":-9.5e-7,"MEAN_MOTION_DDOT":0},{"OBJECT_NAME":"KORONAS-FOTON","OBJECT_ID":"2009-003A","EPOCH":"2026-03-06T01:38:33.940032","MEAN_MOTION":15.4322179,"ECCENTRICITY":0.00109851,"INCLINATION":82.4277,"RA_OF_ASC_NODE":279.6435,"ARG_OF_PERICENTER":161.8849,"MEAN_ANOMALY":198.2792,"EPHEMERIS_TYPE":0,"CLASSIFICATION_TYPE":"U","NORAD_CAT_ID":33504,"ELEMENT_SET_NO":999,"REV_AT_EPOCH":94518,"BSTAR":0.00027699329,"MEAN_MOTION_DOT":0.00012362,"MEAN_MOTION_DDOT":0},{"OBJECT_NAME":"CZ-2C R/B","OBJECT_ID":"2011-030B","EPOCH":"2026-03-06T07:40:52.466016","MEAN_MOTION":14.81206813,"ECCENTRICITY":0.00527551,"INCLINATION":97.8546,"RA_OF_ASC_NODE":22.6507,"ARG_OF_PERICENTER":3.0391,"MEAN_ANOMALY":155.3282,"EPHEMERIS_TYPE":0,"CLASSIFICATION_TYPE":"U","NORAD_CAT_ID":37731,"ELEMENT_SET_NO":999,"REV_AT_EPOCH":78959,"BSTAR":0.00033073231,"MEAN_MOTION_DOT":2.582e-5,"MEAN_MOTION_DDOT":0},{"OBJECT_NAME":"H-2A R/B","OBJECT_ID":"2012-025E","EPOCH":"2026-03-06T05:57:57.571200","MEAN_MOTION":14.95130706,"ECCENTRICITY":0.00435927,"INCLINATION":98.4729,"RA_OF_ASC_NODE":32.019,"ARG_OF_PERICENTER":325.872,"MEAN_ANOMALY":33.9697,"EPHEMERIS_TYPE":0,"CLASSIFICATION_TYPE":"U","NORAD_CAT_ID":38341,"ELEMENT_SET_NO":999,"REV_AT_EPOCH":74770,"BSTAR":0.00048399254,"MEAN_MOTION_DOT":5.342e-5,"MEAN_MOTION_DDOT":0},{"OBJECT_NAME":"SHIJIAN-16 (SJ-16)","OBJECT_ID":"2013-057A","EPOCH":"2026-03-06T08:15:31.021920","MEAN_MOTION":14.92330202,"ECCENTRICITY":0.0015603,"INCLINATION":74.9732,"RA_OF_ASC_NODE":191.4202,"ARG_OF_PERICENTER":120.9704,"MEAN_ANOMALY":239.302,"EPHEMERIS_TYPE":0,"CLASSIFICATION_TYPE":"U","NORAD_CAT_ID":39358,"ELEMENT_SET_NO":999,"REV_AT_EPOCH":67100,"BSTAR":0.00056098717,"MEAN_MOTION_DOT":5.723e-5,"MEAN_MOTION_DDOT":0},{"OBJECT_NAME":"SL-4 R/B","OBJECT_ID":"2014-021B","EPOCH":"2026-03-06T04:30:14.329440","MEAN_MOTION":15.39044825,"ECCENTRICITY":0.00978106,"INCLINATION":51.6091,"RA_OF_ASC_NODE":354.3614,"ARG_OF_PERICENTER":90.1357,"MEAN_ANOMALY":271.0835,"EPHEMERIS_TYPE":0,"CLASSIFICATION_TYPE":"U","NORAD_CAT_ID":39679,"ELEMENT_SET_NO":999,"REV_AT_EPOCH":65573,"BSTAR":0.00039081215,"MEAN_MOTION_DOT":0.00017733,"MEAN_MOTION_DDOT":0},{"OBJECT_NAME":"ALOS-2","OBJECT_ID":"2014-029A","EPOCH":"2026-03-06T06:28:13.643904","MEAN_MOTION":14.79486543,"ECCENTRICITY":0.00014076,"INCLINATION":97.9198,"RA_OF_ASC_NODE":163.9163,"ARG_OF_PERICENTER":97.6062,"MEAN_ANOMALY":262.531,"EPHEMERIS_TYPE":0,"CLASSIFICATION_TYPE":"U","NORAD_CAT_ID":39766,"ELEMENT_SET_NO":999,"REV_AT_EPOCH":63636,"BSTAR":0.00029010672,"MEAN_MOTION_DOT":2.117e-5,"MEAN_MOTION_DDOT":0},{"OBJECT_NAME":"YAOGAN-29","OBJECT_ID":"2015-069A","EPOCH":"2026-03-06T06:51:43.814592","MEAN_MOTION":14.82990467,"ECCENTRICITY":0.00020994,"INCLINATION":98.0142,"RA_OF_ASC_NODE":93.7059,"ARG_OF_PERICENTER":41.2303,"MEAN_ANOMALY":318.9069,"EPHEMERIS_TYPE":0,"CLASSIFICATION_TYPE":"U","NORAD_CAT_ID":41038,"ELEMENT_SET_NO":999,"REV_AT_EPOCH":55537,"BSTAR":8.5381841e-5,"MEAN_MOTION_DOT":6.39e-6,"MEAN_MOTION_DDOT":0}]
